SES-2                   
1 37809U 11049A   26198.25066808 -.00000206  00000+0  00000+0 0  9990
2 37809   0.1333  90.9262 0002711  23.1091 184.2661  1.00271985 54262
ARABSAT-5C              
1 37810U 11049B   26198.27190152  .00000113  00000+0  00000+0 0  9990
2 37810   0.0525  25.4529 0003546 107.1939 280.3145  1.00272353 54339
EUTELSAT 7 WEST A       
1 37816U 11051A   26198.26644149 -.00000071  00000+0  00000+0 0  9992
2 37816   0.0613 353.4479 0004693 135.1918 255.0325  1.00271217 54172
QUETZSAT 1              
1 37826U 11054A   26197.96757701 -.00000252  00000+0  00000+0 0  9992
2 37826   0.0485 269.2367 0002777 214.9715  81.9047  1.00269355 50175
INTELSAT 18 (IS-18)     
1 37834U 11056A   26198.16100995  .00000043  00000+0  00000+0 0  9990
2 37834   0.0301 236.9189 0001801 251.3969  44.6195  1.00272226 54116
EUTELSAT 16A            
1 37836U 11057A   26198.12850980  .00000094  00000+0  00000+0 0  9991
2 37836   0.0420  25.7382 0005762  87.3427 244.1588  1.00274630  7634
VIASAT-1                
1 37843U 11059A   26198.05316228  .00000000  00000+0  00000+0 0  9992
2 37843   0.0226  59.0485 0002230  50.6009  89.2654  1.00271393 47624
ASIASAT 7               
1 37933U 11069A   26198.28871493 -.00000344  00000+0  00000+0 0  9990
2 37933   0.0213  73.2364 0001258  14.7671  56.5548  1.00271188 45167
BEIDOU-2 IGSO-5         
1 37948U 11073A   26183.72937883 -.00000128  00000+0  00000+0 0  9990
2 37948  47.6496 271.3544 0114527 222.0502 141.5350  1.00270596 53296
LUCH-5A                 
1 37951U 11074B   26197.87327845 -.00000063  00000+0  00000+0 0  9995
2 37951   8.8274  73.3694 0002667  60.5336 282.1722  1.00273389 53344
NIGCOMSAT 1R            
1 38014U 11077A   26198.27632154  .00000135  00000+0  00000+0 0  9995
2 38014   0.0316 111.4190 0002493 238.1341  87.4962  1.00271943 53253
WGS F4 (USA 233)        
1 38070U 12003A   26198.19697726 -.00000225  00000+0  00000+0 0  9995
2 38070   0.0197  45.3181 0000627 114.8736 294.1414  1.00271358 44453
SES-4                   
1 38087U 12007A   26198.23864380 -.00000178  00000+0  00000+0 0  9991
2 38087   0.0224  38.9053 0002543  78.9444 241.1271  1.00273367 52525
BEIDOU-2 G5             
1 38091U 12008A   26198.13700318  .00000046  00000+0  00000+0 0  9999
2 38091   3.6466  69.5053 0007310 268.5365  64.8902  1.00270818 52667
MUOS-1                  
1 38093U 12009A   26198.17674677 -.00000139  00000+0  00000+0 0  9998
2 38093   5.5353  47.1114 0056732   3.5631 208.0033  1.00271667 52749
INTELSAT 22 (IS-22)     
1 38098U 12011A   26198.20808690 -.00000069  00000+0  00000+0 0  9996
2 38098   0.0192  49.3293 0001838  77.5338 315.1741  1.00271915  7482
APSTAR-7                
1 38107U 12013A   26198.07753093 -.00000111  00000+0  00000+0 0  9998
2 38107   0.0265  91.5157 0002967  35.6094 272.1839  1.00270983 52103
YAHSAT 1B               
1 38245U 12016A   26198.27727488  .00000116  00000+0  00000+0 0  9999
2 38245   0.0875  88.6908 0002802  36.4766 317.3459  1.00273068 45904
AEHF-2 (USA 235)        
1 38254U 12019A   26197.98586485 -.00000148  00000+0  00000+0 0  9995
2 38254   6.7170  57.2609 0002188  60.5061 155.4691  1.00272108  7280
JCSAT-13                
1 38331U 12023A   26198.29244162 -.00000366  00000+0  00000+0 0  9996
2 38331   0.0192  42.9791 0002531  81.3497  40.0493  1.00269331 51840
VINASAT-2               
1 38332U 12023B   26198.29400162 -.00000339  00000+0  00000+0 0  9991
2 38332   0.0229 328.1956 0002232 149.9030  54.6904  1.00269941 46968
NIMIQ 6                 
1 38342U 12026A   26198.24988808 -.00000184  00000+0  00000+0 0  9996
2 38342   0.0659 264.8987 0002762 216.1865 172.8437  1.00271489 50719
ZHONGXING-2A            
1 38352U 12028A   26198.09538992 -.00000303  00000+0  00000+0 0  9990
2 38352   1.5299  83.4886 0001414  41.3352 302.6775  1.00269721 51592
INTELSAT 19 (IS-19)     
1 38356U 12030A   26198.22952703 -.00000067  00000+0  00000+0 0  9999
2 38356   0.0182  40.8824 0002863  74.9653  67.8144  1.00271696 50756
ECHOSTAR 17             
1 38551U 12035A   26198.24668140 -.00000085  00000+0  00000+0 0  9992
2 38551   0.0180  46.8355 0002088  64.5605 165.3673  1.00270782 51361
METEOSAT-10 (MSG-3)     
1 38552U 12035B   26198.26791484 -.00000019  00000+0  00000+0 0  9990
2 38552   4.7413  60.8717 0001243  16.7453 313.9620  1.00271422 51154
SES-5                   
1 38652U 12036A   26198.26886817  .00000023  00000+0  00000+0 0  9991
2 38652   0.0441 323.0310 0001951 153.7619 280.0585  1.00271325 44754
INTELSAT 20 (IS-20)     
1 38740U 12043A   26198.16433529 -.00000034  00000+0  00000+0 0  9997
2 38740   0.0112  62.7729 0001258 118.5181 241.3595  1.00270572 51045
HYLAS 2                 
1 38741U 12043B   26198.25352809 -.00000269  00000+0  00000+0 0  9999
2 38741   2.5031  80.7030 0002357  56.3279 176.7324  1.00272395 51075
INTELSAT 21 (IS-21)     
1 38749U 12045A   26198.25647477 -.00000295  00000+0  00000+0 0  9996
2 38749   0.0482 245.7813 0001623 241.5994 202.0269  1.00272374 50825
ASTRA 2F                
1 38778U 12051A   26198.27346153  .00000140  00000+0  00000+0 0  9992
2 38778   0.0835 255.3837 0002997 287.6103 238.6938  1.00270463 41432
GSAT-10                 
1 38779U 12051B   26198.14176987 -.00000175  00000+0  00000+0 0  9994
2 38779   0.0859 264.4590 0007443 190.3180 334.2173  1.00272744 50395
