OBJECT_NAME,OBJECT_ID,EPOCH,MEAN_MOTION,ECCENTRICITY,INCLINATION,RA_OF_ASC_NODE,ARG_OF_PERICENTER,MEAN_ANOMALY,EPHEMERIS_TYPE,CLASSIFICATION_TYPE,NORAD_CAT_ID,ELEMENT_SET_NO,REV_AT_EPOCH,BSTAR,MEAN_MOTION_DOT,MEAN_MOTION_DDOT
SES-2,2011-049A,2026-07-17T06:00:57.722112,1.00271985,.00027114,0.1333,90.9262,23.1091,184.2661,0,U,37809,999,5426,0,-.206E-5,0
ARABSAT-5C,2011-049B,2026-07-17T06:31:32.291328,1.00272353,.00035465,0.0525,25.4529,107.1939,280.3145,0,U,37810,999,5433,0,.113E-5,0
EUTELSAT 7 WEST A,2011-051A,2026-07-17T06:23:40.544736,1.00271217,.00046939,0.0613,353.4479,135.1918,255.0325,0,U,37816,999,5417,0,-.71E-6,0
QUETZSAT 1,2011-054A,2026-07-16T23:13:18.653664,1.00269355,.00027771,0.0485,269.2367,214.9715,81.9047,0,U,37826,999,5017,0,-.252E-5,0
INTELSAT 18 (IS-18),2011-056A,2026-07-17T03:51:51.259680,1.00272226,.00018017,0.0301,236.9189,251.3969,44.6195,0,U,37834,999,5411,0,.43E-6,0
EUTELSAT 16A,2011-057A,2026-07-17T03:05:03.246720,1.00274630,.00057625,0.0420,25.7382,87.3427,244.1588,0,U,37836,999,763,0,.94E-6,0
VIASAT-1,2011-059A,2026-07-17T01:16:33.220992,1.00271393,.00022304,0.0226,59.0485,50.6009,89.2654,0,U,37843,999,4762,0,0,0
ASIASAT 7,2011-069A,2026-07-17T06:55:44.969952,1.00271188,.00012589,0.0213,73.2364,14.7671,56.5548,0,U,37933,999,4516,0,-.344E-5,0
BEIDOU-2 IGSO-5,2011-073A,2026-07-02T17:30:18.330912,1.00270596,.01145273,47.6496,271.3544,222.0502,141.5350,0,U,37948,999,5329,0,-.128E-5,0
LUCH-5A,2011-074B,2026-07-16T20:57:31.258080,1.00273389,.00026675,8.8274,73.3694,60.5336,282.1722,0,U,37951,999,5334,0,-.63E-6,0
NIGCOMSAT 1R,2011-077A,2026-07-17T06:37:54.181056,1.00271943,.00024931,0.0316,111.4190,238.1341,87.4962,0,U,38014,999,5325,0,.135E-5,0
WGS F4 (USA 233),2012-003A,2026-07-17T04:43:38.835264,1.00271358,.00006272,0.0197,45.3181,114.8736,294.1414,0,U,38070,999,4445,0,-.225E-5,0
SES-4,2012-007A,2026-07-17T05:43:38.824320,1.00273367,.00025437,0.0224,38.9053,78.9444,241.1271,0,U,38087,999,5252,0,-.178E-5,0
BEIDOU-2 G5,2012-008A,2026-07-17T03:17:17.074752,1.00270818,.00073108,3.6466,69.5053,268.5365,64.8902,0,U,38091,999,5266,0,.46E-6,0
MUOS-1,2012-009A,2026-07-17T04:14:30.920928,1.00271667,.00567327,5.5353,47.1114,3.5631,208.0033,0,U,38093,999,5274,0,-.139E-5,0
INTELSAT 22 (IS-22),2012-011A,2026-07-17T04:59:38.708160,1.00271915,.00018383,0.0192,49.3293,77.5338,315.1741,0,U,38098,999,748,0,-.69E-6,0
APSTAR-7,2012-013A,2026-07-17T01:51:38.672352,1.00270983,.00029673,0.0265,91.5157,35.6094,272.1839,0,U,38107,999,5210,0,-.111E-5,0
YAHSAT 1B,2012-016A,2026-07-17T06:39:16.549632,1.00273068,.00028023,0.0875,88.6908,36.4766,317.3459,0,U,38245,999,4590,0,.116E-5,0
AEHF-2 (USA 235),2012-019A,2026-07-16T23:39:38.723040,1.00272108,.00021887,6.7170,57.2609,60.5061,155.4691,0,U,38254,999,728,0,-.148E-5,0
JCSAT-13,2012-023A,2026-07-17T07:01:06.955968,1.00269331,.0002531,0.0192,42.9791,81.3497,40.0493,0,U,38331,999,5184,0,-.366E-5,0
VINASAT-2,2012-023B,2026-07-17T07:03:21.739968,1.00269941,.00022325,0.0229,328.1956,149.9030,54.6904,0,U,38332,999,4696,0,-.339E-5,0
NIMIQ 6,2012-026A,2026-07-17T05:59:50.330112,1.00271489,.00027629,0.0659,264.8987,216.1865,172.8437,0,U,38342,999,5071,0,-.184E-5,0
ZHONGXING-2A,2012-028A,2026-07-17T02:17:21.689088,1.00269721,.00014143,1.5299,83.4886,41.3352,302.6775,0,U,38352,999,5159,0,-.303E-5,0
INTELSAT 19 (IS-19),2012-030A,2026-07-17T05:30:31.135392,1.00271696,.00028636,0.0182,40.8824,74.9653,67.8144,0,U,38356,999,5075,0,-.67E-6,0
ECHOSTAR 17,2012-035A,2026-07-17T05:55:13.272960,1.00270782,.00020887,0.0180,46.8355,64.5605,165.3673,0,U,38551,999,5136,0,-.85E-6,0
METEOSAT-10 (MSG-3),2012-035B,2026-07-17T06:25:47.842176,1.00271422,.00012438,4.7413,60.8717,16.7453,313.9620,0,U,38552,999,5115,0,-.19E-6,0
SES-5,2012-036A,2026-07-17T06:27:10.209888,1.00271325,.00019516,0.0441,323.0310,153.7619,280.0585,0,U,38652,999,4475,0,.23E-6,0
INTELSAT 20 (IS-20),2012-043A,2026-07-17T03:56:38.569056,1.00270572,.0001258,0.0112,62.7729,118.5181,241.3595,0,U,38740,999,5104,0,-.34E-6,0
HYLAS 2,2012-043B,2026-07-17T06:05:04.826976,1.00272395,.00023576,2.5031,80.7030,56.3279,176.7324,0,U,38741,999,5107,0,-.269E-5,0
INTELSAT 21 (IS-21),2012-045A,2026-07-17T06:09:19.420128,1.00272374,.0001623,0.0482,245.7813,241.5994,202.0269,0,U,38749,999,5082,0,-.295E-5,0
ASTRA 2F,2012-051A,2026-07-17T06:33:47.076192,1.00270463,.00029971,0.0835,255.3837,287.6103,238.6938,0,U,38778,999,4143,0,.14E-5,0
GSAT-10,2012-051B,2026-07-17T03:24:08.916768,1.00272744,.00074438,0.0859,264.4590,190.3180,334.2173,0,U,38779,999,5039,0,-.175E-5,0
